APRIZESAT 2             
1 28366U 04025A   26062.45226559  .00000440  00000+0  14991-3 0  9994
2 28366  98.0900 234.4727 0105093 208.7171 150.8207 14.37982562136444
SAUDICOMSAT 1           
1 28369U 04025D   26062.55620078  .00000685  00000+0  16822-3 0  9998
2 28369  98.5808  69.8252 0031945 349.2906  10.7606 14.55380224148765
SAUDICOMSAT 2           
1 28370U 04025E   26062.54265354  .00000435  00000+0  12309-3 0  9990
2 28370  98.6685  71.7859 0054890 218.6992 141.0263 14.49903433144796
APRIZESAT 1             
1 28372U 04025G   26062.49855494  .00000397  00000+0  10973-3 0  9998
2 28372  98.6344  70.3304 0045751 115.9551 244.6368 14.51709216146576
NANOSAT-1               
1 28493U 04049B   26062.36501613  .00001861  00000+0  25396-3 0  9997
2 28493  98.2087 196.5621 0002814 273.2384  86.8505 14.79896384139796
SAUDICOMSAT 7           
1 31119U 07012C   26062.39150815  .00000891  00000+0  16860-3 0  9994
2 31119  98.3668  34.4339 0056055 166.7364 193.5328 14.65958548  6931
SAUDICOMSAT 6           
1 31121U 07012E   26062.72813567  .00001132  00000+0  22627-3 0  9991
2 31121  98.3979  28.3662 0070803 295.7063  63.6839 14.62418541  4771
SAUDICOMSAT 5           
1 31124U 07012H   26062.85273271  .00001185  00000+0  21225-3 0  9991
2 31124  98.3382  35.6713 0048839  96.8024 263.8741 14.67988157  8142
SAUDICOMSAT 3           
1 31125U 07012J   26062.45012657  .00001611  00000+0  27115-3 0  9995
2 31125  98.3038  35.8217 0039990  28.0966 332.2387 14.70504211  9284
SAUDICOMSAT 4           
1 31127U 07012L   26062.38632789  .00000885  00000+0  17278-3 0  9994
2 31127  98.3871  32.8800 0062522 228.2381 131.3467 14.64366766  5803
APRIZESAT 4             
1 35684U 09041D   26062.72014331  .00001152  00000+0  14437-3 0  9997
2 35684  98.1498 135.9195 0042289 304.6266  55.0963 14.83694957895727
APRIZESAT 3             
1 35686U 09041F   26062.35661444  .00003018  00000+0  26517-3 0  9996
2 35686  98.1883 210.6317 0063228  57.4098 303.3204 14.95868124900553
S-NET D                 
1 43186U 18014G   26062.73239906  .00008439  00000+0  44814-3 0  9998
2 43186  97.5448 328.2209 0009486  33.9443 326.2394 15.15532171442785
S-NET B                 
1 43187U 18014H   26062.67582185  .00008646  00000+0  45932-3 0  9994
2 43187  97.5455 328.1481 0009952  29.1842 330.9945 15.15502968442777
S-NET A                 
1 43188U 18014J   26062.73177233  .00008387  00000+0  44524-3 0  9994
2 43188  97.5465 328.3934 0009903  30.1926 329.9875 15.15538717442787
S-NET C                 
1 43189U 18014K   26062.67913857  .00008708  00000+0  46261-3 0  9995
2 43189  97.5478 328.3992 0011067  21.8475 338.3227 15.15495189441325
SALSAT                  
1 46495U 20068K   26062.77970161  .00012684  00000+0  46597-3 0  9992
2 46495  97.8847  59.5668 0008731 321.6728  38.3888 15.28039347299257
